{"type":"Feature","properties":{"MUN":"KEANSBURG BORO","COUNTY":"MONMOUTH","MUN_LABEL":"Keansburg Borough","MUN_TYPE":"Borough","NAME":"Keansburg Borough","GNIS_NAME":"Borough of Keansburg"},"geometry":{"type":"MultiPolygon","coordinates":[[[[-74.1163915,40.4469717],[-74.1175096,40.4452228],[-74.1182046,40.4453147],[-74.1190552,40.4424627],[-74.1190023,40.442439],[-74.1191038,40.4420613],[-74.119522,40.4421417],[-74.123286,40.4416909],[-74.1232632,40.4415649],[-74.1234178,40.4415509],[-74.1233783,40.4412685],[-74.1238738,40.4407771],[-74.1222756,40.4405642],[-74.1223465,40.4378856],[-74.1257029,40.4379808],[-74.1288943,40.4394092],[-74.1291318,40.4382811],[-74.1279722,40.4388157],[-74.1261863,40.4380072],[-74.1279769,40.4358282],[-74.1283383,40.4358762],[-74.1282839,40.4361417],[-74.1298473,40.4363408],[-74.130308,40.4363995],[-74.1306032,40.4364353],[-74.1308286,40.4354183],[-74.1312538,40.4354725],[-74.1321054,40.435581],[-74.1329609,40.4356909],[-74.1336156,40.4357744],[-74.1337368,40.4357899],[-74.1343539,40.4358669],[-74.1349569,40.4359475],[-74.1351032,40.4359657],[-74.1350972,40.436024],[-74.135097,40.4360684],[-74.1351056,40.4361074],[-74.1351142,40.4361317],[-74.1351369,40.4361681],[-74.1351667,40.4361978],[-74.1352106,40.4362262],[-74.1352457,40.4362478],[-74.1352913,40.4362769],[-74.135343,40.4363201],[-74.1353754,40.4363578],[-74.1354072,40.436405],[-74.1354299,40.4364475],[-74.1354526,40.4364845],[-74.1354762,40.436523],[-74.1355101,40.4365883],[-74.1355236,40.4366132],[-74.1355446,40.4366436],[-74.1355691,40.4366766],[-74.1356129,40.4367104],[-74.1356463,40.436728],[-74.1356832,40.4367362],[-74.1357343,40.4367397],[-74.1357897,40.4367419],[-74.1358548,40.4367495],[-74.135897,40.4367564],[-74.135923,40.4367605],[-74.1359785,40.4367573],[-74.1360251,40.4367541],[-74.1360938,40.4367597],[-74.1361474,40.4367733],[-74.1361997,40.4367896],[-74.136249,40.4367972],[-74.1362974,40.4368014],[-74.136337,40.4368021],[-74.1363731,40.4367976],[-74.1364233,40.4367957],[-74.1364603,40.4367978],[-74.1364902,40.4368033],[-74.1365103,40.4368175],[-74.1365287,40.4368411],[-74.1365348,40.4368626],[-74.136539,40.4368896],[-74.1365362,40.4369178],[-74.1365184,40.4369521],[-74.1365024,40.4369809],[-74.1364812,40.4370064],[-74.1364484,40.4370305],[-74.1364096,40.437052],[-74.136369,40.4370693],[-74.136339,40.43708],[-74.1363152,40.4370961],[-74.1362802,40.4371172],[-74.1362316,40.4371552],[-74.1362019,40.4371789],[-74.1361831,40.4372039],[-74.1361573,40.4372517],[-74.136128,40.4372906],[-74.136078,40.4373376],[-74.1360336,40.4374022],[-74.1359951,40.4374714],[-74.1359767,40.4375106],[-74.1359223,40.4376008],[-74.1359041,40.4376457],[-74.135889,40.4376829],[-74.1358739,40.4377125],[-74.135857,40.4377343],[-74.1358214,40.4377596],[-74.1357692,40.4377881],[-74.1357108,40.4378054],[-74.1356315,40.437829],[-74.1355932,40.4378371],[-74.1355693,40.4378438],[-74.1355554,40.4378499],[-74.1355384,40.4378589],[-74.1355167,40.437878],[-74.135458,40.4379319],[-74.1353952,40.4379906],[-74.1353471,40.438043],[-74.135301,40.4380779],[-74.1352509,40.4381143],[-74.1352007,40.438146],[-74.1351432,40.4381808],[-74.1350638,40.4382204],[-74.1349657,40.4382646],[-74.1348738,40.4383009],[-74.1347674,40.4383325],[-74.1346882,40.4383497],[-74.1345923,40.4383573],[-74.1344756,40.4383618],[-74.1343895,40.4383585],[-74.134384,40.4383583],[-74.1342945,40.4383501],[-74.1341602,40.4383369],[-74.133991,40.4383212],[-74.1339046,40.4383194],[-74.133839,40.4383216],[-74.1338254,40.4383233],[-74.1338054,40.4383338],[-74.1337905,40.4383422],[-74.1337755,40.4383573],[-74.1337654,40.4383732],[-74.1337564,40.4383922],[-74.1337503,40.4384089],[-74.1337462,40.4384241],[-74.1337421,40.4384454],[-74.133744,40.4384674],[-74.1337568,40.4385017],[-74.1337858,40.4385527],[-74.1338154,40.4386083],[-74.1338785,40.4387037],[-74.1339074,40.4387587],[-74.1339497,40.4388296],[-74.1339755,40.4388735],[-74.1339973,40.4388958],[-74.1340211,40.4389166],[-74.1340398,40.4389262],[-74.1340658,40.4389311],[-74.1341158,40.4389352],[-74.1341627,40.4389314],[-74.134195,40.4389251],[-74.1342305,40.4389189],[-74.1342727,40.438915],[-74.1343133,40.4389175],[-74.1343341,40.4389216],[-74.1343507,40.4389296],[-74.1343673,40.43894],[-74.1343777,40.4389504],[-74.134387,40.4389663],[-74.1343962,40.4389958],[-74.1344043,40.4390396],[-74.1344342,40.4391484],[-74.1344429,40.4391963],[-74.1344565,40.4392548],[-74.1344613,40.4392814],[-74.1344611,40.4393233],[-74.1344629,40.4393559],[-74.1344657,40.4393856],[-74.134471,40.4394183],[-74.1344789,40.4394442],[-74.1344857,40.4394662],[-74.1344975,40.4394906],[-74.1345064,40.4395074],[-74.1345241,40.439531],[-74.1345399,40.4395485],[-74.1345743,40.4395677],[-74.1346065,40.4395854],[-74.1346481,40.4395998],[-74.1347105,40.4396103],[-74.1348162,40.4396234],[-74.1349394,40.4396387],[-74.1351025,40.4396536],[-74.1352612,40.4396622],[-74.1354258,40.4396651],[-74.1355706,40.4396608],[-74.1356962,40.4396461],[-74.1357681,40.4396264],[-74.1358182,40.4396083],[-74.1358631,40.4395885],[-74.1359018,40.4395711],[-74.135932,40.4395609],[-74.1359717,40.4395499],[-74.1359936,40.4395467],[-74.1360196,40.439546],[-74.1360352,40.4395485],[-74.1360612,40.4395605],[-74.136085,40.4395773],[-74.1361078,40.4395988],[-74.1361389,40.439622],[-74.1361981,40.4396692],[-74.1362748,40.4397323],[-74.1364275,40.4399031],[-74.1364484,40.4399277],[-74.1364562,40.4399452],[-74.1364592,40.4399505],[-74.1364641,40.439962],[-74.136466,40.4399787],[-74.136462,40.4399901],[-74.136459,40.4399984],[-74.1364539,40.4400083],[-74.1364459,40.4400159],[-74.1364339,40.4400295],[-74.1364189,40.4400416],[-74.1363693,40.4400867],[-74.1363514,40.4401105],[-74.1363289,40.4401386],[-74.1362987,40.4401978],[-74.1362371,40.4403521],[-74.1362107,40.4404133],[-74.1361812,40.4404864],[-74.1361648,40.4405285],[-74.136151,40.4405707],[-74.1361467,40.4405945],[-74.1361423,40.4406478],[-74.136139,40.4406868],[-74.1361367,40.4407218],[-74.1361344,40.4407568],[-74.136128,40.4407791],[-74.1361259,40.4407916],[-74.1361169,40.4408045],[-74.1361049,40.4408132],[-74.136084,40.4408283],[-74.1360506,40.4408473],[-74.1359843,40.4408757],[-74.135906,40.4409081],[-74.135835,40.4409341],[-74.1357683,40.440953],[-74.1356838,40.4409711],[-74.135591,40.4409835],[-74.1354727,40.4409982],[-74.1354133,40.44101],[-74.1353393,40.4410297],[-74.1352527,40.4410525],[-74.1351755,40.4410737],[-74.1351092,40.4410886],[-74.1350081,40.4411106],[-74.1349414,40.4411271],[-74.1348975,40.4411437],[-74.1348599,40.4411603],[-74.1348317,40.4411737],[-74.1348087,40.4411895],[-74.1347993,40.4412023],[-74.1347877,40.4412261],[-74.134775,40.4412722],[-74.1347626,40.4413334],[-74.1347519,40.4413947],[-74.1347496,40.4414241],[-74.1347505,40.4414623],[-74.1347565,40.4414974],[-74.1347658,40.441526],[-74.1347936,40.4415739],[-74.1348371,40.441617],[-74.1348864,40.4416577],[-74.1350088,40.4417504],[-74.1351281,40.4418479],[-74.1352126,40.4419094],[-74.135332,40.4419783],[-74.1354266,40.4420191],[-74.1355399,40.4420537],[-74.1356746,40.4420931],[-74.1357952,40.4421357],[-74.1359625,40.4422078],[-74.1361174,40.4422712],[-74.1362186,40.4423264],[-74.1362747,40.4423624],[-74.1363203,40.4423968],[-74.136339,40.4424135],[-74.1363714,40.4424633],[-74.1363833,40.4424828],[-74.1363922,40.4425],[-74.1363982,40.4425371],[-74.136406,40.4425835],[-74.1364133,40.4426099],[-74.1364162,40.4426259],[-74.1364221,40.4426373],[-74.136431,40.4426614],[-74.1364547,40.4427038],[-74.1364725,40.4427382],[-74.1365074,40.4427966],[-74.1365281,40.4428367],[-74.1365519,40.4428722],[-74.1365771,40.4429226],[-74.1365933,40.4429682],[-74.1366024,40.4430176],[-74.1366099,40.4430567],[-74.1366195,40.4431177],[-74.1366341,40.4431786],[-74.1366562,40.4432377],[-74.1366882,40.4433101],[-74.1367252,40.4433806],[-74.136782,40.4434626],[-74.1368365,40.4435294],[-74.136886,40.4435923],[-74.1369354,40.4436648],[-74.1369724,40.4437258],[-74.1370107,40.4437944],[-74.1370428,40.4438421],[-74.1371418,40.4439585],[-74.1372359,40.4440635],[-74.1372629,40.4441244],[-74.1373046,40.4442407],[-74.1373489,40.4443416],[-74.1373932,40.4444579],[-74.1374212,40.4445626],[-74.1374407,40.4446426],[-74.13749,40.4447436],[-74.1375593,40.4448256],[-74.137656,40.4449116],[-74.1378195,40.445072],[-74.1379607,40.4452208],[-74.1380374,40.44532],[-74.1380942,40.4453963],[-74.1381486,40.4454764],[-74.1382074,40.4455861],[-74.1382207,40.4456125],[-74.1382296,40.4456354],[-74.138243,40.4456594],[-74.1382548,40.4456835],[-74.1382771,40.4457145],[-74.1383024,40.4457408],[-74.1383487,40.4457815],[-74.1383956,40.4458189],[-74.1384314,40.4458419],[-74.1384567,40.4458626],[-74.1384746,40.4458832],[-74.1384969,40.4459142],[-74.1385213,40.4459554],[-74.1385406,40.4460013],[-74.1385477,40.4460585],[-74.1385685,40.4461495],[-74.1385954,40.4462276],[-74.1386237,40.4462924],[-74.138673,40.4463953],[-74.1387546,40.4465021],[-74.1388363,40.4466051],[-74.1389229,40.4466986],[-74.1390184,40.4467845],[-74.1391249,40.4468991],[-74.1392588,40.4470137],[-74.1394249,40.4471531],[-74.1395911,40.4472792],[-74.1397525,40.4473863],[-74.1399213,40.4474895],[-74.1399957,40.4475469],[-74.1400454,40.4475718],[-74.1401125,40.4475929],[-74.1402121,40.4476122],[-74.140344,40.4476165],[-74.1404723,40.4476226],[-74.1405619,40.4476266],[-74.1406366,40.4476307],[-74.1407337,40.4476519],[-74.1408157,40.4476826],[-74.1408753,40.4477247],[-74.1409297,40.4477895],[-74.1409693,40.4478506],[-74.1410186,40.4479326],[-74.1410261,40.4479402],[-74.1410706,40.4479993],[-74.1411498,40.4481042],[-74.1412972,40.4482436],[-74.1413914,40.4483219],[-74.1415006,40.4484022],[-74.1415775,40.4484557],[-74.1416386,40.4484769],[-74.141682,40.4484827],[-74.1418165,40.4484964],[-74.141956,40.4484911],[-74.1420108,40.4484913],[-74.1421575,40.448485],[-74.142245,40.4484711],[-74.1424085,40.4484202],[-74.1424709,40.4483937],[-74.1425433,40.4483597],[-74.1425589,40.4483497],[-74.1424752,40.4477523],[-74.1474089,40.4480759],[-74.1474234,40.4480907],[-74.1474727,40.4481803],[-74.1474883,40.448227],[-74.1474956,40.4482891],[-74.1474927,40.4483454],[-74.1474847,40.4484132],[-74.1474446,40.4485157],[-74.1473798,40.4486027],[-74.1472915,40.4486919],[-74.1471857,40.4487676],[-74.1470375,40.4488387],[-74.1472979,40.4489832],[-74.147309,40.4489894],[-74.1474461,40.4490837],[-74.1475774,40.4491669],[-74.1479492,40.4494341],[-74.1481211,40.4495934],[-74.1481457,40.4496177],[-74.147598,40.4498872],[-74.1473643,40.4500377],[-74.1472122,40.4501138],[-74.147057,40.450199],[-74.1469575,40.450254],[-74.1469444,40.4502613],[-74.1463338,40.4506986],[-74.1454438,40.4514051],[-74.1441358,40.4525468],[-74.1438924,40.4527177],[-74.1434908,40.4530462],[-74.1429634,40.45347],[-74.1427882,40.4536003],[-74.1422833,40.4539587],[-74.1419776,40.4541541],[-74.1410751,40.4546956],[-74.1408377,40.4548851],[-74.1406052,40.4550492],[-74.1404714,40.4551336],[-74.1403662,40.4552278],[-74.1402259,40.4553462],[-74.1401273,40.4553968],[-74.1400885,40.4554122],[-74.1400604,40.4554377],[-74.1396949,40.4557525],[-74.1396455,40.4557803],[-74.1394954,40.4559105],[-74.1394318,40.4559467],[-74.139175,40.4560758],[-74.1387524,40.4562827],[-74.1377777,40.4566736],[-74.1375647,40.4567432],[-74.1371644,40.4568244],[-74.1368563,40.4568695],[-74.136363,40.4568473],[-74.1360238,40.4567881],[-74.1354009,40.4566467],[-74.1352471,40.4566293],[-74.1350725,40.4566469],[-74.1348802,40.4566984],[-74.1346188,40.4567758],[-74.1344739,40.4568614],[-74.1343942,40.4569336],[-74.1343656,40.456935],[-74.1343419,40.4569312],[-74.1343316,40.4569233],[-74.1342181,40.4567872],[-74.1341928,40.4567678],[-74.1336122,40.456452],[-74.1335015,40.4563765],[-74.1326392,40.4559241],[-74.1326076,40.4559095],[-74.132489,40.4558254],[-74.1322961,40.4557133],[-74.1322042,40.4556839],[-74.1318856,40.4556211],[-74.1318287,40.4555894],[-74.1313532,40.4553845],[-74.1310158,40.4552029],[-74.1305593,40.4549232],[-74.130151,40.4546698],[-74.1297259,40.4543686],[-74.1294365,40.4542155],[-74.1290341,40.4539273],[-74.1281521,40.4534159],[-74.1273868,40.4529093],[-74.1258472,40.4519567],[-74.1252403,40.4516157],[-74.1250015,40.4514772],[-74.1245371,40.4512016],[-74.1241728,40.4509751],[-74.123898,40.4508224],[-74.1235642,40.4505959],[-74.1232737,40.4503721],[-74.1230184,40.4501631],[-74.1226831,40.4499171],[-74.1225633,40.4498383],[-74.1223172,40.4497101],[-74.1221574,40.449619],[-74.1219433,40.4494885],[-74.1216925,40.4493456],[-74.1215038,40.4492495],[-74.1213568,40.4491755],[-74.1212577,40.4491164],[-74.1211619,40.4490549],[-74.1210645,40.4489909],[-74.1209734,40.4489415],[-74.119806,40.4484528],[-74.1196748,40.4484034],[-74.119515,40.448322],[-74.1194087,40.4482475],[-74.1193636,40.448227],[-74.1186601,40.4478416],[-74.1185003,40.4477554],[-74.1184044,40.4477061],[-74.1183021,40.447647],[-74.1181454,40.447573],[-74.1179856,40.4475014],[-74.117784,40.4474032],[-74.1175632,40.447282],[-74.1173513,40.4472407],[-74.1171987,40.4471902],[-74.117068,40.4471302],[-74.1169779,40.4470607],[-74.1168628,40.4470031],[-74.1166415,40.4469643],[-74.1165386,40.446952],[-74.1164793,40.4469542],[-74.116423,40.4469643],[-74.1163915,40.4469717]]],[[[-74.1257889,40.438484],[-74.1246753,40.4398048],[-74.1249767,40.4411341],[-74.124846,40.4412088],[-74.1248746,40.4413369],[-74.1247442,40.4413568],[-74.1247754,40.441513],[-74.1260522,40.4413455],[-74.1276015,40.440974],[-74.127319,40.440069],[-74.1272825,40.4400864],[-74.1266747,40.4392971],[-74.1266146,40.4393317],[-74.1257889,40.438484]]]]}}
